ACS3                    
1 59588U 24077B   24293.40486399  .00001797  00000+0  20255-2 0  9997
2 59588  97.4607 332.9369 0048222 176.8779 183.2684 13.71085838 24392
